start=new Date('2022-03-19T00:00:00.000Z').valueOf();
sats=[{"NORAD_CAT_ID":"50158","ELEMENT_SET_NO":"999","RCS_SIZE":"LARGE","BSTAR":"-0.00016335000000","SITE":"AFWTR","OBJECT_NAME":"STARLINK-3309","CLASSIFICATION_TYPE":"U","RA_OF_ASC_NODE":"296.3907","ARG_OF_PERICENTER":"46.6653","COUNTRY_CODE":"US","SEMIMAJOR_AXIS":"6917.886","GP_ID":"199104682","FILE":"3364757","OBJECT_TYPE":"PAYLOAD","MEAN_ELEMENT_THEORY":"SGP4","REV_AT_EPOCH":"361","MEAN_MOTION":"15.08838076","TLE_LINE2":"2 50158  53.2178 296.3907 0002083  46.6653 325.4235 15.08838076  3616","PERIAPSIS":"538.310","OBJECT_ID":"2021-125C","INCLINATION":"53.2178","PERIOD":"95.438","LAUNCH_DATE":"2021-12-18","EPHEMERIS_TYPE":"0","ECCENTRICITY":"0.00020830","EPOCH":"2022-03-18T22:00:00.999936","REF_FRAME":"TEME","APOAPSIS":"541.192","TIME_SYSTEM":"UTC","CENTER_NAME":"EARTH","MEAN_MOTION_DOT":"-0.00002887","MEAN_MOTION_DDOT":"0.0000000000000","MEAN_ANOMALY":"325.4235","TLE_LINE1":"1 50158U 21125C   22077.91667824 -.00002887  00000-0 -16335-3 0  9999","DECAY_DATE":null},{"TLE_LINE2":"2 50159  53.2181 296.3858 0001998  50.2608 341.8489 15.08847839 13746","PERIAPSIS":"538.339","OBJECT_ID":"2021-125D","INCLINATION":"53.2181","MEAN_MOTION":"15.08847839","PERIOD":"95.437","SEMIMAJOR_AXIS":"6917.856","MEAN_ELEMENT_THEORY":"SGP4","REV_AT_EPOCH":"1374","GP_ID":"199081606","FILE":"3364700","OBJECT_TYPE":"PAYLOAD","SITE":"AFWTR","BSTAR":"-0.00015999000000","COUNTRY_CODE":"US","CLASSIFICATION_TYPE":"U","RA_OF_ASC_NODE":"296.3858","OBJECT_NAME":"STARLINK-3297","ARG_OF_PERICENTER":"50.2608","NORAD_CAT_ID":"50159","ELEMENT_SET_NO":"999","RCS_SIZE":"LARGE","DECAY_DATE":null,"TLE_LINE1":"1 50159U 21125D   22077.91667824 -.00002834  00000-0 -15999-3 0  9997","MEAN_ANOMALY":"341.8489","MEAN_MOTION_DDOT":"0.0000000000000","CENTER_NAME":"EARTH","MEAN_MOTION_DOT":"-0.00002834","EPHEMERIS_TYPE":"0","EPOCH":"2022-03-18T22:00:00.999936","ECCENTRICITY":"0.00019980","LAUNCH_DATE":"2021-12-18","TIME_SYSTEM":"UTC","APOAPSIS":"541.104","REF_FRAME":"TEME"},{"MEAN_MOTION_DOT":"0.00000008","CENTER_NAME":"EARTH","REF_FRAME":"TEME","APOAPSIS":"541.101","TIME_SYSTEM":"UTC","LAUNCH_DATE":"2021-12-18","ECCENTRICITY":"0.00019710","EPOCH":"2022-03-18T22:00:00.999936","EPHEMERIS_TYPE":"0","DECAY_DATE":null,"MEAN_MOTION_DDOT":"0.0000000000000","TLE_LINE1":"1 50160U 21125E   22077.91667824  .00000008  00000-0  18597-4 0  9996","MEAN_ANOMALY":"308.6956","ARG_OF_PERICENTER":"43.3459","CLASSIFICATION_TYPE":"U","OBJECT_NAME":"STARLINK-3288","RA_OF_ASC_NODE":"296.3895","COUNTRY_CODE":"US","BSTAR":"0.00001859700000","SITE":"AFWTR","RCS_SIZE":"LARGE","NORAD_CAT_ID":"50160","ELEMENT_SET_NO":"999","PERIOD":"95.437","MEAN_MOTION":"15.08842671","INCLINATION":"53.2174","PERIAPSIS":"538.374","OBJECT_ID":"2021-125E","TLE_LINE2":"2 50160  53.2174 296.3895 0001971  43.3459 308.6956 15.08842671 16808","OBJECT_TYPE":"PAYLOAD","GP_ID":"199076663","FILE":"3364524","MEAN_ELEMENT_THEORY":"SGP4","REV_AT_EPOCH":"1680","SEMIMAJOR_AXIS":"6917.872"},{"SITE":"AFWTR","BSTAR":"0.00005763800000","COUNTRY_CODE":"US","CLASSIFICATION_TYPE":"U","RA_OF_ASC_NODE":"296.3915","OBJECT_NAME":"STARLINK-3304","ARG_OF_PERICENTER":"46.3233","NORAD_CAT_ID":"50161","ELEMENT_SET_NO":"999","RCS_SIZE":"LARGE","TLE_LINE2":"2 50161  53.2169 296.3915 0002050  46.3233 285.7216 15.08851527  3606","OBJECT_ID":"2021-125F","PERIAPSIS":"538.292","INCLINATION":"53.2169","MEAN_MOTION":"15.08851527","PERIOD":"95.437","SEMIMAJOR_AXIS":"6917.845","REV_AT_EPOCH":"360","MEAN_ELEMENT_THEORY":"SGP4","FILE":"3364757","GP_ID":"199105921","OBJECT_TYPE":"PAYLOAD","CENTER_NAME":"EARTH","MEAN_MOTION_DOT":"0.00000629","EPHEMERIS_TYPE":"0","ECCENTRICITY":"0.00020500","EPOCH":"2022-03-18T22:00:00.999936","LAUNCH_DATE":"2021-12-18","TIME_SYSTEM":"UTC","APOAPSIS":"541.128","REF_FRAME":"TEME","DECAY_DATE":null,"MEAN_ANOMALY":"285.7216","TLE_LINE1":"1 50161U 21125F   22077.91667824  .00000629  00000-0  57638-4 0  9995","MEAN_MOTION_DDOT":"0.0000000000000"},{"MEAN_ELEMENT_THEORY":"SGP4","REV_AT_EPOCH":"372","GP_ID":"199105182","FILE":"3364757","OBJECT_TYPE":"PAYLOAD","SEMIMAJOR_AXIS":"6690.204","PERIOD":"90.765","TLE_LINE2":"2 50162  53.2142 274.7919 0003265 168.7302 225.6210 15.86513273  3726","INCLINATION":"53.2142","PERIAPSIS":"309.885","OBJECT_ID":"2021-125G","MEAN_MOTION":"15.86513273","RCS_SIZE":"LARGE","ELEMENT_SET_NO":"999","NORAD_CAT_ID":"50162","COUNTRY_CODE":"US","CLASSIFICATION_TYPE":"U","RA_OF_ASC_NODE":"274.7919","OBJECT_NAME":"STARLINK-3303","ARG_OF_PERICENTER":"168.7302","SITE":"AFWTR","BSTAR":"0.00050601000000","TLE_LINE1":"1 50162U 21125G   22077.91667824  .00131759  00000-0  50601-3 0  9997","MEAN_ANOMALY":"225.6210","MEAN_MOTION_DDOT":"0.0000000000000","DECAY_DATE":null,"TIME_SYSTEM":"UTC","REF_FRAME":"TEME","APOAPSIS":"314.253","EPHEMERIS_TYPE":"0","EPOCH":"2022-03-18T22:00:00.999936","ECCENTRICITY":"0.00032650","LAUNCH_DATE":"2021-12-18","MEAN_MOTION_DOT":"0.00131759","CENTER_NAME":"EARTH"},{"LAUNCH_DATE":"2021-12-18","ECCENTRICITY":"0.00018110","EPOCH":"2022-03-18T22:00:00.999936","EPHEMERIS_TYPE":"0","REF_FRAME":"TEME","APOAPSIS":"434.519","TIME_SYSTEM":"UTC","CENTER_NAME":"EARTH","MEAN_MOTION_DOT":"-0.00304376","MEAN_MOTION_DDOT":"0.0000000000000","MEAN_ANOMALY":"306.0616","TLE_LINE1":"1 50163U 21125H   22077.91667824 -.00304376  00000-0 -67462-2 0  9999","DECAY_DATE":null,"ELEMENT_SET_NO":"999","NORAD_CAT_ID":"50163","RCS_SIZE":"LARGE","BSTAR":"-0.00674620000000","SITE":"AFWTR","ARG_OF_PERICENTER":"35.9420","RA_OF_ASC_NODE":"283.5791","CLASSIFICATION_TYPE":"U","OBJECT_NAME":"STARLINK-3306","COUNTRY_CODE":"US","SEMIMAJOR_AXIS":"6811.421","OBJECT_TYPE":"PAYLOAD","GP_ID":"199105432","FILE":"3364757","MEAN_ELEMENT_THEORY":"SGP4","REV_AT_EPOCH":"367","MEAN_MOTION":"15.44351715","PERIAPSIS":"432.052","INCLINATION":"53.2174","OBJECT_ID":"2021-125H","TLE_LINE2":"2 50163  53.2174 283.5791 0001811  35.9420 306.0616 15.44351715  3672","PERIOD":"93.243"},{"TIME_SYSTEM":"UTC","REF_FRAME":"TEME","APOAPSIS":"351.466","EPHEMERIS_TYPE":"0","ECCENTRICITY":"0.00036090","EPOCH":"2022-03-18T22:00:00.999936","LAUNCH_DATE":"2021-12-18","MEAN_MOTION_DOT":"0.00692595","CENTER_NAME":"EARTH","MEAN_ANOMALY":"105.8687","TLE_LINE1":"1 50164U 21125J   22077.91667824  .00692595  00000-0  44961-2 0  9990","MEAN_MOTION_DDOT":"0.0000000000000","DECAY_DATE":null,"RCS_SIZE":"LARGE","ELEMENT_SET_NO":"999","NORAD_CAT_ID":"50164","COUNTRY_CODE":"US","CLASSIFICATION_TYPE":"U","OBJECT_NAME":"STARLINK-3307","RA_OF_ASC_NODE":"278.2729","ARG_OF_PERICENTER":"7.5733","SITE":"AFWTR","BSTAR":"0.00449610000000","REV_AT_EPOCH":"1705","MEAN_ELEMENT_THEORY":"SGP4","GP_ID":"199080994","FILE":"3364694","OBJECT_TYPE":"PAYLOAD","SEMIMAJOR_AXIS":"6727.173","PERIOD":"91.518","TLE_LINE2":"2 50164  53.2175 278.2729 0003609   7.5733 105.8687 15.73453326 17058","PERIAPSIS":"346.610","INCLINATION":"53.2175","OBJECT_ID":"2021-125J","MEAN_MOTION":"15.73453326"},{"SEMIMAJOR_AXIS":"6917.868","REV_AT_EPOCH":"1420","MEAN_ELEMENT_THEORY":"SGP4","OBJECT_TYPE":"PAYLOAD","GP_ID":"199081008","FILE":"3364694","PERIAPSIS":"538.347","INCLINATION":"53.2186","OBJECT_ID":"2021-125K","TLE_LINE2":"2 50165  53.2186 296.3772 0002004  44.6420   7.4618 15.08843931 14201","MEAN_MOTION":"15.08843931","PERIOD":"95.437","NORAD_CAT_ID":"50165","ELEMENT_SET_NO":"999","RCS_SIZE":"LARGE","SITE":"AFWTR","BSTAR":"-0.00023367000000","COUNTRY_CODE":"US","ARG_OF_PERICENTER":"44.6420","CLASSIFICATION_TYPE":"U","RA_OF_ASC_NODE":"296.3772","OBJECT_NAME":"STARLINK-3298","MEAN_ANOMALY":"7.4618","TLE_LINE1":"1 50165U 21125K   22077.91667824 -.00004006  00000-0 -23367-3 0  9995","MEAN_MOTION_DDOT":"0.0000000000000","DECAY_DATE":null,"ECCENTRICITY":"0.00020040","EPOCH":"2022-03-18T22:00:00.999936","EPHEMERIS_TYPE":"0","LAUNCH_DATE":"2021-12-18","TIME_SYSTEM":"UTC","REF_FRAME":"TEME","APOAPSIS":"541.120","CENTER_NAME":"EARTH","MEAN_MOTION_DOT":"-0.00004006"},{"DECAY_DATE":null,"MEAN_MOTION_DDOT":"0.0000000000000","MEAN_ANOMALY":"157.5201","TLE_LINE1":"1 50166U 21125L   22077.91667824 -.00663910  00000-0 -36466-1 0  9993","MEAN_MOTION_DOT":"-0.00663910","CENTER_NAME":"EARTH","APOAPSIS":"519.047","REF_FRAME":"TEME","TIME_SYSTEM":"UTC","LAUNCH_DATE":"2021-12-18","EPHEMERIS_TYPE":"0","ECCENTRICITY":"0.00015610","EPOCH":"2022-03-18T22:00:00.999936","PERIOD":"94.987","MEAN_MOTION":"15.15991935","TLE_LINE2":"2 50166  53.2175 286.5252 0001561  63.6028 157.5201 15.15991935  3654","PERIAPSIS":"516.894","INCLINATION":"53.2175","OBJECT_ID":"2021-125L","GP_ID":"199104683","FILE":"3364757","OBJECT_TYPE":"PAYLOAD","MEAN_ELEMENT_THEORY":"SGP4","REV_AT_EPOCH":"365","SEMIMAJOR_AXIS":"6896.106","OBJECT_NAME":"STARLINK-3305","CLASSIFICATION_TYPE":"U","RA_OF_ASC_NODE":"286.5252","ARG_OF_PERICENTER":"63.6028","COUNTRY_CODE":"US","BSTAR":"-0.03646600000000","SITE":"AFWTR","RCS_SIZE":"LARGE","NORAD_CAT_ID":"50166","ELEMENT_SET_NO":"999"},{"MEAN_MOTION":"15.08849256","PERIAPSIS":"538.310","INCLINATION":"53.2169","OBJECT_ID":"2021-125M","TLE_LINE2":"2 50167  53.2169 296.3722 0002034  43.4648  48.4723 15.08849256 16818","PERIOD":"95.437","SEMIMAJOR_AXIS":"6917.852","OBJECT_TYPE":"PAYLOAD","FILE":"3364698","GP_ID":"199081068","MEAN_ELEMENT_THEORY":"SGP4","REV_AT_EPOCH":"1681","BSTAR":"-0.00029277000000","SITE":"AFWTR","ARG_OF_PERICENTER":"43.4648","CLASSIFICATION_TYPE":"U","OBJECT_NAME":"STARLINK-3271","RA_OF_ASC_NODE":"296.3722","COUNTRY_CODE":"US","ELEMENT_SET_NO":"999","NORAD_CAT_ID":"50167","RCS_SIZE":"LARGE","DECAY_DATE":null,"MEAN_MOTION_DDOT":"0.0000000000000","TLE_LINE1":"1 50167U 21125M   22077.91667824 -.00004946  00000-0 -29277-3 0  9996","MEAN_ANOMALY":"48.4723","CENTER_NAME":"EARTH","MEAN_MOTION_DOT":"-0.00004946","LAUNCH_DATE":"2021-12-18","ECCENTRICITY":"0.00020340","EPOCH":"2022-03-18T22:00:00.999936","EPHEMERIS_TYPE":"0","APOAPSIS":"541.124","REF_FRAME":"TEME","TIME_SYSTEM":"UTC"}];
